[{"OBJECT_NAME":"STARLINK-30249","OBJECT_ID":"2023-119S","EPOCH":"2025-10-04T19:39:27.190080","MEAN_MOTION":15.02431974,"ECCENTRICITY":4.61e-5,"INCLINATION":43.0022,"RA_OF_ASC_NODE":209.0193,"ARG_OF_PERICENTER":335.8863,"MEAN_ANOMALY":24.1958,"EPHEMERIS_TYPE":0,"CLASSIFICATION_TYPE":"U","NORAD_CAT_ID":57618,"ELEMENT_SET_NO":999,"REV_AT_EPOCH":11963,"BSTAR":0.0033953,"MEAN_MOTION_DOT":0.00045835,"MEAN_MOTION_DDOT":0},{"OBJECT_NAME":"STARLINK-30141","OBJECT_ID":"2023-119U","EPOCH":"2025-10-04T20:57:32.032224","MEAN_MOTION":15.02534478,"ECCENTRICITY":0.0001162,"INCLINATION":43.0019,"RA_OF_ASC_NODE":208.5663,"ARG_OF_PERICENTER":265.6561,"MEAN_ANOMALY":94.4149,"EPHEMERIS_TYPE":0,"CLASSIFICATION_TYPE":"U","NORAD_CAT_ID":57620,"ELEMENT_SET_NO":999,"REV_AT_EPOCH":11964,"BSTAR":7.4302e-6,"MEAN_MOTION_DOT":-1.03e-6,"MEAN_MOTION_DDOT":0},{"OBJECT_NAME":"STARLINK-30150","OBJECT_ID":"2023-119V","EPOCH":"2025-10-04T19:25:00.324192","MEAN_MOTION":15.02538955,"ECCENTRICITY":3.85e-5,"INCLINATION":42.9958,"RA_OF_ASC_NODE":208.9471,"ARG_OF_PERICENTER":339.8422,"MEAN_ANOMALY":20.2405,"EPHEMERIS_TYPE":0,"CLASSIFICATION_TYPE":"U","NORAD_CAT_ID":57621,"ELEMENT_SET_NO":999,"REV_AT_EPOCH":11963,"BSTAR":-1.3671e-5,"MEAN_MOTION_DOT":-3.88e-6,"MEAN_MOTION_DDOT":0},{"OBJECT_NAME":"STARLINK-30056","OBJECT_ID":"2023-119W","EPOCH":"2025-10-04T19:20:12.529248","MEAN_MOTION":15.02531754,"ECCENTRICITY":2.76e-5,"INCLINATION":43.0031,"RA_OF_ASC_NODE":208.8918,"ARG_OF_PERICENTER":302.3461,"MEAN_ANOMALY":57.7355,"EPHEMERIS_TYPE":0,"CLASSIFICATION_TYPE":"U","NORAD_CAT_ID":57622,"ELEMENT_SET_NO":999,"REV_AT_EPOCH":11963,"BSTAR":1.8601e-5,"MEAN_MOTION_DOT":4.8e-7,"MEAN_MOTION_DDOT":0},{"OBJECT_NAME":"STARLINK-30100","OBJECT_ID":"2023-119X","EPOCH":"2025-10-03T12:56:34.357056","MEAN_MOTION":15.02535697,"ECCENTRICITY":8.76e-5,"INCLINATION":43.0027,"RA_OF_ASC_NODE":215.7587,"ARG_OF_PERICENTER":298.3545,"MEAN_ANOMALY":61.7209,"EPHEMERIS_TYPE":0,"CLASSIFICATION_TYPE":"U","NORAD_CAT_ID":57623,"ELEMENT_SET_NO":999,"REV_AT_EPOCH":11944,"BSTAR":5.7346192e-5,"MEAN_MOTION_DOT":5.71e-6,"MEAN_MOTION_DDOT":0},{"OBJECT_NAME":"STARLINK-30309","OBJECT_ID":"2023-122A","EPOCH":"2025-10-04T20:12:30.128832","MEAN_MOTION":15.02540078,"ECCENTRICITY":0.000111,"INCLINATION":43.0011,"RA_OF_ASC_NODE":221.8666,"ARG_OF_PERICENTER":266.9191,"MEAN_ANOMALY":93.1524,"EPHEMERIS_TYPE":0,"CLASSIFICATION_TYPE":"U","NORAD_CAT_ID":57632,"ELEMENT_SET_NO":999,"REV_AT_EPOCH":11873,"BSTAR":7.8935e-5,"MEAN_MOTION_DOT":8.63e-6,"MEAN_MOTION_DDOT":0},{"OBJECT_NAME":"STARLINK-30306","OBJECT_ID":"2023-122B","EPOCH":"2025-10-04T20:07:40.796832","MEAN_MOTION":15.02541394,"ECCENTRICITY":0.0001749,"INCLINATION":43.0038,"RA_OF_ASC_NODE":221.8435,"ARG_OF_PERICENTER":263.0154,"MEAN_ANOMALY":97.049,"EPHEMERIS_TYPE":0,"CLASSIFICATION_TYPE":"U","NORAD_CAT_ID":57633,"ELEMENT_SET_NO":999,"REV_AT_EPOCH":11873,"BSTAR":-5.5541e-5,"MEAN_MOTION_DOT":-9.54e-6,"MEAN_MOTION_DDOT":0},{"OBJECT_NAME":"STARLINK-30323","OBJECT_ID":"2023-122C","EPOCH":"2025-10-04T19:59:58.327008","MEAN_MOTION":15.02572817,"ECCENTRICITY":0.0001117,"INCLINATION":43.003,"RA_OF_ASC_NODE":208.2158,"ARG_OF_PERICENTER":279.4723,"MEAN_ANOMALY":80.5993,"EPHEMERIS_TYPE":0,"CLASSIFICATION_TYPE":"U","NORAD_CAT_ID":57634,"ELEMENT_SET_NO":999,"REV_AT_EPOCH":11889,"BSTAR":-0.00064877,"MEAN_MOTION_DOT":-8.965e-5,"MEAN_MOTION_DDOT":0},{"OBJECT_NAME":"STARLINK-30329","OBJECT_ID":"2023-122D","EPOCH":"2025-10-04T13:40:00.872256","MEAN_MOTION":15.02532936,"ECCENTRICITY":5.49e-5,"INCLINATION":43.0003,"RA_OF_ASC_NODE":223.2629,"ARG_OF_PERICENTER":267.804,"MEAN_ANOMALY":92.274,"EPHEMERIS_TYPE":0,"CLASSIFICATION_TYPE":"U","NORAD_CAT_ID":57635,"ELEMENT_SET_NO":999,"REV_AT_EPOCH":11869,"BSTAR":-6.1058e-5,"MEAN_MOTION_DOT":-1.028e-5,"MEAN_MOTION_DDOT":0},{"OBJECT_NAME":"STARLINK-30330","OBJECT_ID":"2023-122E","EPOCH":"2025-10-04T13:35:11.829696","MEAN_MOTION":15.02545519,"ECCENTRICITY":0.0001146,"INCLINATION":43.0023,"RA_OF_ASC_NODE":223.2377,"ARG_OF_PERICENTER":282.1146,"MEAN_ANOMALY":77.9568,"EPHEMERIS_TYPE":0,"CLASSIFICATION_TYPE":"U","NORAD_CAT_ID":57636,"ELEMENT_SET_NO":999,"REV_AT_EPOCH":11869,"BSTAR":0.00043637,"MEAN_MOTION_DOT":5.697e-5,"MEAN_MOTION_DDOT":0},{"OBJECT_NAME":"STARLINK-30311","OBJECT_ID":"2023-122F","EPOCH":"2025-10-04T19:48:31.879008","MEAN_MOTION":15.02585,"ECCENTRICITY":0.0001864,"INCLINATION":43.0046,"RA_OF_ASC_NODE":221.7417,"ARG_OF_PERICENTER":274.2781,"MEAN_ANOMALY":85.7848,"EPHEMERIS_TYPE":0,"CLASSIFICATION_TYPE":"U","NORAD_CAT_ID":57637,"ELEMENT_SET_NO":999,"REV_AT_EPOCH":11873,"BSTAR":-0.00088281,"MEAN_MOTION_DOT":-0.00012124,"MEAN_MOTION_DDOT":0},{"OBJECT_NAME":"STARLINK-30328","OBJECT_ID":"2023-122G","EPOCH":"2025-10-04T20:09:33.636096","MEAN_MOTION":15.0253361,"ECCENTRICITY":0.0001309,"INCLINATION":43.0024,"RA_OF_ASC_NODE":208.2046,"ARG_OF_PERICENTER":264.7669,"MEAN_ANOMALY":95.3023,"EPHEMERIS_TYPE":0,"CLASSIFICATION_TYPE":"U","NORAD_CAT_ID":57638,"ELEMENT_SET_NO":999,"REV_AT_EPOCH":11890,"BSTAR":2.8844e-5,"MEAN_MOTION_DOT":1.86e-6,"MEAN_MOTION_DDOT":0},{"OBJECT_NAME":"STARLINK-30326","OBJECT_ID":"2023-122H","EPOCH":"2025-10-04T20:31:31.306080","MEAN_MOTION":15.02536465,"ECCENTRICITY":0.0001252,"INCLINATION":43.0033,"RA_OF_ASC_NODE":221.0995,"ARG_OF_PERICENTER":265.904,"MEAN_ANOMALY":94.1659,"EPHEMERIS_TYPE":0,"CLASSIFICATION_TYPE":"U","NORAD_CAT_ID":57639,"ELEMENT_SET_NO":999,"REV_AT_EPOCH":11874,"BSTAR":6.2799e-5,"MEAN_MOTION_DOT":6.45e-6,"MEAN_MOTION_DDOT":0},{"OBJECT_NAME":"STARLINK-30324","OBJECT_ID":"2023-122J","EPOCH":"2025-10-04T21:14:40.522272","MEAN_MOTION":15.02545461,"ECCENTRICITY":0.0001638,"INCLINATION":42.9974,"RA_OF_ASC_NODE":221.3285,"ARG_OF_PERICENTER":278.4907,"MEAN_ANOMALY":81.575,"EPHEMERIS_TYPE":0,"CLASSIFICATION_TYPE":"U","NORAD_CAT_ID":57640,"ELEMENT_SET_NO":999,"REV_AT_EPOCH":11874,"BSTAR":-1.6737e-5,"MEAN_MOTION_DOT":-4.3e-6,"MEAN_MOTION_DDOT":0},{"OBJECT_NAME":"STARLINK-30312","OBJECT_ID":"2023-122K","EPOCH":"2025-10-04T21:09:52.857792","MEAN_MOTION":15.02533898,"ECCENTRICITY":0.0001591,"INCLINATION":43.0068,"RA_OF_ASC_NODE":221.3092,"ARG_OF_PERICENTER":259.8538,"MEAN_ANOMALY":100.2125,"EPHEMERIS_TYPE":0,"CLASSIFICATION_TYPE":"U","NORAD_CAT_ID":57641,"ELEMENT_SET_NO":999,"REV_AT_EPOCH":11874,"BSTAR":3.7859e-5,"MEAN_MOTION_DOT":3.08e-6,"MEAN_MOTION_DDOT":0},{"OBJECT_NAME":"STARLINK-30263","OBJECT_ID":"2023-122L","EPOCH":"2025-10-03T06:42:48.275424","MEAN_MOTION":15.02547708,"ECCENTRICITY":0.00015521,"INCLINATION":43.004,"RA_OF_ASC_NODE":229.9269,"ARG_OF_PERICENTER":271.7973,"MEAN_ANOMALY":88.2691,"EPHEMERIS_TYPE":0,"CLASSIFICATION_TYPE":"U","NORAD_CAT_ID":57642,"ELEMENT_SET_NO":999,"REV_AT_EPOCH":11850,"BSTAR":-0.00017620577,"MEAN_MOTION_DOT":-2.584e-5,"MEAN_MOTION_DDOT":0},{"OBJECT_NAME":"STARLINK-30280","OBJECT_ID":"2023-122M","EPOCH":"2025-10-04T20:45:52.930080","MEAN_MOTION":15.02550893,"ECCENTRICITY":4.4e-5,"INCLINATION":43.0007,"RA_OF_ASC_NODE":221.182,"ARG_OF_PERICENTER":216.7447,"MEAN_ANOMALY":143.3365,"EPHEMERIS_TYPE":0,"CLASSIFICATION_TYPE":"U","NORAD_CAT_ID":57643,"ELEMENT_SET_NO":999,"REV_AT_EPOCH":11874,"BSTAR":9.7803e-5,"MEAN_MOTION_DOT":1.118e-5,"MEAN_MOTION_DDOT":0}]
