STARLINK-30249          
1 57618U 23119S   25277.81906470  .00045835  00000+0  33953-2 0  9990
2 57618  43.0022 209.0193 0000461 335.8863  24.1958 15.02431974119636
STARLINK-30141          
1 57620U 23119U   25277.87328741 -.00000103  00000+0  74302-5 0  9994
2 57620  43.0019 208.5663 0001162 265.6561  94.4149 15.02534478119641
STARLINK-30150          
1 57621U 23119V   25277.80903153 -.00000388  00000+0 -13671-4 0  9991
2 57621  42.9958 208.9471 0000385 339.8422  20.2405 15.02538955119634
STARLINK-30056          
1 57622U 23119W   25277.80570057  .00000048  00000+0  18601-4 0  9994
2 57622  43.0031 208.8918 0000276 302.3461  57.7355 15.02531754119630
STARLINK-30100          
1 57623U 23119X   25276.53928654  .00000571  00000+0  57346-4 0  9994
2 57623  43.0027 215.7587 0000876 298.3545  61.7209 15.02535697119440
STARLINK-30309          
1 57632U 23122A   25277.84201538  .00000863  00000+0  78935-4 0  9999
2 57632  43.0011 221.8666 0001110 266.9191  93.1524 15.02540078118738
STARLINK-30306          
1 57633U 23122B   25277.83866663 -.00000954  00000+0 -55541-4 0  9996
2 57633  43.0038 221.8435 0001749 263.0154  97.0490 15.02541394118734
STARLINK-30323          
1 57634U 23122C   25277.83331397 -.00008965  00000+0 -64877-3 0  9999
2 57634  43.0030 208.2158 0001117 279.4723  80.5993 15.02572817118896
STARLINK-30329          
1 57635U 23122D   25277.56945454 -.00001028  00000+0 -61058-4 0  9997
2 57635  43.0003 223.2629 0000549 267.8040  92.2740 15.02532936118694
STARLINK-30330          
1 57636U 23122E   25277.56610914  .00005697  00000+0  43637-3 0  9994
2 57636  43.0023 223.2377 0001146 282.1146  77.9568 15.02545519118697
STARLINK-30311          
1 57637U 23122F   25277.82536897 -.00012124  00000+0 -88281-3 0  9990
2 57637  43.0046 221.7417 0001864 274.2781  85.7848 15.02585000118737
STARLINK-30328          
1 57638U 23122G   25277.83997264  .00000186  00000+0  28844-4 0  9994
2 57638  43.0024 208.2046 0001309 264.7669  95.3023 15.02533610118906
STARLINK-30326          
1 57639U 23122H   25277.85522345  .00000645  00000+0  62799-4 0  9998
2 57639  43.0033 221.0995 0001252 265.9040  94.1659 15.02536465118741
STARLINK-30324          
1 57640U 23122J   25277.88519123 -.00000430  00000+0 -16737-4 0  9998
2 57640  42.9974 221.3285 0001638 278.4907  81.5750 15.02545461118747
STARLINK-30312          
1 57641U 23122K   25277.88186178  .00000308  00000+0  37859-4 0  9999
2 57641  43.0068 221.3092 0001591 259.8538 100.2125 15.02533898118747
STARLINK-30263          
1 57642U 23122L   25276.27972541 -.00002584  00000+0 -17621-3 0  9993
2 57642  43.0040 229.9269 0001552 271.7973  88.2691 15.02547708118503
STARLINK-30280          
1 57643U 23122M   25277.86519595  .00001118  00000+0  97803-4 0  9997
2 57643  43.0007 221.1820 0000440 216.7447 143.3365 15.02550893118740
